{"type": "FeatureCollection", "features": [ {"type": "Feature", "properties": {"norad_id": 67040, "name": "STARLINK-35786", "group": "last-30-days", "lat": 39.261259084699, "lon": -113.45799715499011, "alt_km": 309.83781276392074, "timestamp": "2025-12-21T14:40:46.637065+00:00", "meta": {"OBJECT_NAME": "STARLINK-35786", "OBJECT_ID": "2025-294L", "EPOCH": "2025-12-21T06:00:00.999648", "MEAN_MOTION": 15.8554579, "ECCENTRICITY": 0.00021932, "INCLINATION": 42.9999, "RA_OF_ASC_NODE": 130.0729, "ARG_OF_PERICENTER": 267.9285, "MEAN_ANOMALY": 297.0953, "EPHEMERIS_TYPE": 0, "CLASSIFICATION_TYPE": "U", "NORAD_CAT_ID": 67040, "ELEMENT_SET_NO": 999, "REV_AT_EPOCH": 148, "BSTAR": 7.2290335e-05, "MEAN_MOTION_DOT": 0.00017481, "MEAN_MOTION_DDOT": 0}, "tle": {"line1": "1 67040U 25294L   25355.25001157  .00017481  00000+0  72290-4 0  9994", "line2": "2 67040  42.9999 130.0729 0002193 267.9285 297.0953 15.85545790  1484"}}, "geometry": {"type": "Point", "coordinates": [-113.45799715499011, 39.261259084699]}}, {"type": "Feature", "properties": {"norad_id": 67041, "name": "STARLINK-35765", "group": "last-30-days", "lat": 37.789482979991845, "lon": -108.48354422012085, "alt_km": 309.4287867444418, "timestamp": "2025-12-21T14:40:46.637076+00:00", "meta": {"OBJECT_NAME": "STARLINK-35765", "OBJECT_ID": "2025-294M", "EPOCH": "2025-12-21T06:00:00.999648", "MEAN_MOTION": 15.85606982, "ECCENTRICITY": 0.00015475, "INCLINATION": 42.9998, "RA_OF_ASC_NODE": 130.0625, "ARG_OF_PERICENTER": 260.2105, "MEAN_ANOMALY": 308.9029, "EPHEMERIS_TYPE": 0, "CLASSIFICATION_TYPE": "U", "NORAD_CAT_ID": 67041, "ELEMENT_SET_NO": 999, "REV_AT_EPOCH": 148, "BSTAR": 1.4988814e-05, "MEAN_MOTION_DOT": 3.181e-05, "MEAN_MOTION_DDOT": 0}, "tle": {"line1": "1 67041U 25294M   25355.25001157  .00003181  00000+0  14989-4 0  9998", "line2": "2 67041  42.9998 130.0625 0001547 260.2105 308.9029 15.85606982  1485"}}, "geometry": {"type": "Point", "coordinates": [-108.48354422012085, 37.789482979991845]}}, {"type": "Feature", "properties": {"norad_id": 67042, "name": "STARLINK-35773", "group": "last-30-days", "lat": 36.91557229941964, "lon": -105.89942685313312, "alt_km": 309.9608509909449, "timestamp": "2025-12-21T14:40:46.637086+00:00", "meta": {"OBJECT_NAME": "STARLINK-35773", "OBJECT_ID": "2025-294N", "EPOCH": "2025-12-21T06:00:00.999648", "MEAN_MOTION": 15.85622965, "ECCENTRICITY": 0.00022337, "INCLINATION": 42.9999, "RA_OF_ASC_NODE": 130.057, "ARG_OF_PERICENTER": 267.724, "MEAN_ANOMALY": 303.6008, "EPHEMERIS_TYPE": 0, "CLASSIFICATION_TYPE": "U", "NORAD_CAT_ID": 67042, "ELEMENT_SET_NO": 999, "REV_AT_EPOCH": 167, "BSTAR": 4.397559e-05, "MEAN_MOTION_DOT": 0.00010444, "MEAN_MOTION_DDOT": 0}, "tle": {"line1": "1 67042U 25294N   25355.25001157  .00010444  00000+0  43976-4 0  9997", "line2": "2 67042  42.9999 130.0570 0002233 267.7240 303.6008 15.85622965  1670"}}, "geometry": {"type": "Point", "coordinates": [-105.89942685313312, 36.91557229941964]}}, {"type": "Feature", "properties": {"norad_id": 67043, "name": "STARLINK-35901", "group": "last-30-days", "lat": 35.99320580107789, "lon": -103.39286447971004, "alt_km": 309.528518674163, "timestamp": "2025-12-21T14:40:46.637097+00:00", "meta": {"OBJECT_NAME": "STARLINK-35901", "OBJECT_ID": "2025-294P", "EPOCH": "2025-12-21T06:00:00.999648", "MEAN_MOTION": 15.85654968, "ECCENTRICITY": 0.00015491, "INCLINATION": 42.9999, "RA_OF_ASC_NODE": 130.0516, "ARG_OF_PERICENTER": 258.6676, "MEAN_ANOMALY": 314.8387, "EPHEMERIS_TYPE": 0, "CLASSIFICATION_TYPE": "U", "NORAD_CAT_ID": 67043, "ELEMENT_SET_NO": 999, "REV_AT_EPOCH": 167, "BSTAR": -5.800186e-06, "MEAN_MOTION_DOT": -2.019e-05, "MEAN_MOTION_DDOT": 0}, "tle": {"line1": "1 67043U 25294P   25355.25001157 -.00002019  00000+0 -58002-5 0  9996", "line2": "2 67043  42.9999 130.0516 0001549 258.6676 314.8387 15.85654968  1674"}}, "geometry": {"type": "Point", "coordinates": [-103.39286447971004, 35.99320580107789]}}, {"type": "Feature", "properties": {"norad_id": 67044, "name": "STARLINK-35884", "group": "last-30-days", "lat": 35.0523615859486, "lon": -101.02459331538888, "alt_km": 310.0495088001471, "timestamp": "2025-12-21T14:40:46.637107+00:00", "meta": {"OBJECT_NAME": "STARLINK-35884", "OBJECT_ID": "2025-294Q", "EPOCH": "2025-12-21T06:00:00.999648", "MEAN_MOTION": 15.85676816, "ECCENTRICITY": 0.00021951, "INCLINATION": 43.0002, "RA_OF_ASC_NODE": 130.0462, "ARG_OF_PERICENTER": 266.7486, "MEAN_ANOMALY": 308.8793, "EPHEMERIS_TYPE": 0, "CLASSIFICATION_TYPE": "U", "NORAD_CAT_ID": 67044, "ELEMENT_SET_NO": 999, "REV_AT_EPOCH": 167, "BSTAR": -1.7803969e-05, "MEAN_MOTION_DOT": -5.03e-05, "MEAN_MOTION_DDOT": 0}, "tle": {"line1": "1 67044U 25294Q   25355.25001157 -.00005030  00000+0 -17804-4 0  9997", "line2": "2 67044  43.0002 130.0462 0002195 266.7486 308.8793 15.85676816  1679"}}, "geometry": {"type": "Point", "coordinates": [-101.02459331538888, 35.0523615859486]}}, {"type": "Feature", "properties": {"norad_id": 67045, "name": "STARLINK-35891", "group": "last-30-days", "lat": 33.87089350123455, "lon": -98.272504127576, "alt_km": 310.1858485687462, "timestamp": "2025-12-21T14:40:46.637117+00:00", "meta": {"OBJECT_NAME": "STARLINK-35891", "OBJECT_ID": "2025-294R", "EPOCH": "2025-12-21T06:00:00.999648", "MEAN_MOTION": 15.85693715, "ECCENTRICITY": 0.00021518, "INCLINATION": 43, "RA_OF_ASC_NODE": 130.0396, "ARG_OF_PERICENTER": 269.4901, "MEAN_ANOMALY": 308.6786, "EPHEMERIS_TYPE": 0, "CLASSIFICATION_TYPE": "U", "NORAD_CAT_ID": 67045, "ELEMENT_SET_NO": 999, "REV_AT_EPOCH": 159, "BSTAR": -4.6295474e-05, "MEAN_MOTION_DOT": -0.0001217, "MEAN_MOTION_DDOT": 0}, "tle": {"line1": "1 67045U 25294R   25355.25001157 -.00012170  00000+0 -46295-4 0  9997", "line2": "2 67045  43.0000 130.0396 0002151 269.4901 308.6786 15.85693715  1596"}}, "geometry": {"type": "Point", "coordinates": [-98.272504127576, 33.87089350123455]}}, {"type": "Feature", "properties": {"norad_id": 67046, "name": "STARLINK-35721", "group": "last-30-days", "lat": 32.748120058813505, "lon": -95.84343076275879, "alt_km": 310.2556847057285, "timestamp": "2025-12-21T14:40:46.637129+00:00", "meta": {"OBJECT_NAME": "STARLINK-35721", "OBJECT_ID": "2025-294S", "EPOCH": "2025-12-21T06:00:00.999648", "MEAN_MOTION": 15.85716883, "ECCENTRICITY": 0.00021108, "INCLINATION": 43.0002, "RA_OF_ASC_NODE": 130.0339, "ARG_OF_PERICENTER": 268.9571, "MEAN_ANOMALY": 311.5068, "EPHEMERIS_TYPE": 0, "CLASSIFICATION_TYPE": "U", "NORAD_CAT_ID": 67046, "ELEMENT_SET_NO": 999, "REV_AT_EPOCH": 167, "BSTAR": -7.5989647e-05, "MEAN_MOTION_DOT": -0.00019617, "MEAN_MOTION_DDOT": 0}, "tle": {"line1": "1 67046U 25294S   25355.25001157 -.00019617  00000+0 -75990-4 0  9995", "line2": "2 67046  43.0002 130.0339 0002110 268.9571 311.5068 15.85716883  1675"}}, "geometry": {"type": "Point", "coordinates": [-95.84343076275879, 32.748120058813505]}}, {"type": "Feature", "properties": {"norad_id": 67047, "name": "STARLINK-35779", "group": "last-30-days", "lat": 31.457491717324015, "lon": -93.23798234392373, "alt_km": 310.39833800541055, "timestamp": "2025-12-21T14:40:46.637139+00:00", "meta": {"OBJECT_NAME": "STARLINK-35779", "OBJECT_ID": "2025-294T", "EPOCH": "2025-12-21T06:00:00.999648", "MEAN_MOTION": 15.85735926, "ECCENTRICITY": 0.00021718, "INCLINATION": 43, "RA_OF_ASC_NODE": 130.0279, "ARG_OF_PERICENTER": 267.2788, "MEAN_ANOMALY": 315.7245, "EPHEMERIS_TYPE": 0, "CLASSIFICATION_TYPE": "U", "NORAD_CAT_ID": 67047, "ELEMENT_SET_NO": 999, "REV_AT_EPOCH": 148, "BSTAR": -0.000112844, "MEAN_MOTION_DOT": -0.00028853, "MEAN_MOTION_DDOT": 0}, "tle": {"line1": "1 67047U 25294T   25355.25001157 -.00028853  00000+0 -11284-3 0  9993", "line2": "2 67047  43.0000 130.0279 0002171 267.2788 315.7245 15.85735926  1487"}}, "geometry": {"type": "Point", "coordinates": [-93.23798234392373, 31.457491717324015]}}, {"type": "Feature", "properties": {"norad_id": 67048, "name": "STARLINK-35905", "group": "last-30-days", "lat": 30.671026292620432, "lon": -91.73358519136288, "alt_km": 312.9447234008867, "timestamp": "2025-12-21T14:40:46.637151+00:00", "meta": {"OBJECT_NAME": "STARLINK-35905", "OBJECT_ID": "2025-294U", "EPOCH": "2025-12-21T06:00:00.999648", "MEAN_MOTION": 15.86052955, "ECCENTRICITY": 0.00015109, "INCLINATION": 43.0002, "RA_OF_ASC_NODE": 130.023, "ARG_OF_PERICENTER": 266.2146, "MEAN_ANOMALY": 318.6832, "EPHEMERIS_TYPE": 0, "CLASSIFICATION_TYPE": "U", "NORAD_CAT_ID": 67048, "ELEMENT_SET_NO": 999, "REV_AT_EPOCH": 159, "BSTAR": -0.0068982933, "MEAN_MOTION_DOT": -0.01551028, "MEAN_MOTION_DDOT": 0}, "tle": {"line1": "1 67048U 25294U   25355.25001157 -.01551028  00000+0 -68983-2 0  9997", "line2": "2 67048  43.0002 130.0230 0001510 266.2146 318.6832 15.86052955  1591"}}, "geometry": {"type": "Point", "coordinates": [-91.73358519136288, 30.671026292620432]}}, {"type": "Feature", "properties": {"norad_id": 67049, "name": "STARLINK-35877", "group": "last-30-days", "lat": 29.10477130148135, "lon": -88.89830072640935, "alt_km": 310.55744588851576, "timestamp": "2025-12-21T14:40:46.637161+00:00", "meta": {"OBJECT_NAME": "STARLINK-35877", "OBJECT_ID": "2025-294V", "EPOCH": "2025-12-21T06:00:00.999648", "MEAN_MOTION": 15.85797541, "ECCENTRICITY": 0.00021176, "INCLINATION": 43.0004, "RA_OF_ASC_NODE": 130.0168, "ARG_OF_PERICENTER": 266.8173, "MEAN_ANOMALY": 320.5472, "EPHEMERIS_TYPE": 0, "CLASSIFICATION_TYPE": "U", "NORAD_CAT_ID": 67049, "ELEMENT_SET_NO": 999, "REV_AT_EPOCH": 167, "BSTAR": -0.00022117552, "MEAN_MOTION_DOT": -0.00056003, "MEAN_MOTION_DDOT": 0}, "tle": {"line1": "1 67049U 25294V   25355.25001157 -.00056003  00000+0 -22118-3 0  9991", "line2": "2 67049  43.0004 130.0168 0002117 266.8173 320.5472 15.85797541  1671"}}, "geometry": {"type": "Point", "coordinates": [-88.89830072640935, 29.10477130148135]}}]}